{"fetched_at":"2026-06-14T08:17:21Z","count":15259,"tles":[{"name":"NOAA 20 (JPSS-1)","line1":"1 43013U 17073A   26164.61798726  .00000025  00000+0  32861-4 0  9994","line2":"2 43013  98.7773 104.1123 0000295  68.3291 291.7916 14.19511095443968","category":"Weather"},{"name":"MOHAMMED VI-A","line1":"1 43005U 17070A   26164.62054466  .00000763  00000+0  11534-3 0  9991","line2":"2 43005  97.9562 237.0008 0001420  71.2935 288.8429 14.77065140463454","category":"Other"},{"name":"LEMUR-2-FURIAUS","line1":"1 42840U 17042R   26164.48411574  .00016709  00000+0  57431-3 0  9990","line2":"2 42840  97.3762 343.0905 0008363  80.4299 279.7886 15.30139214487645","category":"Other"},{"name":"JILIN-1 03","line1":"1 41914U 17002B   26164.58546551  .00013020  00000+0  31226-3 0  9999","line2":"2 41914  97.1941 171.7207 0006341 165.3438 194.7995 15.41495266521309","category":"Other"},{"name":"CARTOSAT-2E","line1":"1 42767U 17036C   26164.61960745  .00004940  00000+0  23770-3 0  9998","line2":"2 42767  97.4286 224.4806 0002826 338.5785  21.5331 15.19231682497606","category":"Other"},{"name":"LKW-2","line1":"1 43080U 17084A   26164.61940774  .00009152  00000+0  35527-3 0  9993","line2":"2 43080  97.1196 204.5818 0000606 182.1744 177.9493 15.26300319471144","category":"Other"},{"name":"JILIN-1 06","line1":"1 43024U 17074C   26164.56952972  .00006072  00000+0  18906-3 0  9997","line2":"2 43024  97.4791 267.6888 0005448 246.2425 113.8247 15.33655690473286","category":"Other"},{"name":"LKW-3","line1":"1 43146U 18006A   26164.59934804  .00011483  00000+0  33856-3 0  9998","line2":"2 43146  97.6597 325.0340 0002337 340.5445  19.5708 15.35183754468167","category":"Other"},{"name":"FENGYUN 3D","line1":"1 43010U 17072A   26164.62361991  .00000205  00000+0  11855-3 0  9990","line2":"2 43010  99.0118 138.9810 0002597  67.2131 292.9318 14.19739058444486","category":"Weather"},{"name":"RADFXSAT (FOX-1B)","line1":"1 43017U 17073E   26164.56984625  .00009212  00000+0  40226-3 0  9997","line2":"2 43017  97.4712  31.8592 0150140 341.8088  17.7804 15.12665401464842","category":"Other"},{"name":"CARTOSAT-2D","line1":"1 41948U 17008A   26164.60187478  .00004197  00000+0  20198-3 0  9995","line2":"2 41948  97.4117 223.9745 0003617 244.4128 115.6733 15.19309573517036","category":"Other"},{"name":"IRIDIUM 113","line1":"1 42803U 17039A   26164.47286135  .00000028  00000+0  28366-5 0  9991","line2":"2 42803  86.3966 323.7317 0002290  89.1785 270.9673 14.34217696470653","category":"Other"},{"name":"IRIDIUM 116","line1":"1 43072U 17083C   26164.51725840  .00000064  00000+0  15896-4 0  9998","line2":"2 43072  86.3960 323.5360 0001918  96.9907 263.1507 14.34217953443645","category":"Other"},{"name":"NORSAT 2","line1":"1 42828U 17042D   26164.41143574  .00010203  00000+0  45083-3 0  9994","line2":"2 42828  97.4029 337.9125 0010722  69.1336 291.1048 15.21860488487161","category":"Other"},{"name":"JILIN-1 04","line1":"1 43022U 17074A   26164.58290969  .00014127  00000+0  32927-3 0  9997","line2":"2 43022  97.4858 274.0992 0003837 190.5920 169.5247 15.42359452473710","category":"Other"},{"name":"WNISAT 1R","line1":"1 42835U 17042L   26164.49386194  .00002402  00000+0  18877-3 0  9990","line2":"2 42835  97.4828 320.7482 0010704 159.5092 200.6564 15.01748498485952","category":"Other"},{"name":"MAKERSAT 0","line1":"1 43016U 17073D   26164.65297003  .00018894  00000+0  51523-3 0  9991","line2":"2 43016  97.4638  47.1449 0105291 285.8058  73.1594 15.31989436465920","category":"Other"},{"name":"IRIDIUM 130","line1":"1 43073U 17083D   26164.48554546 -.00000051  00000+0 -25386-4 0  9991","line2":"2 43073  86.3966 323.8243 0001821  90.0985 270.0420 14.34217084443588","category":"Other"},{"name":"TECHNOSAT","line1":"1 42829U 17042E   26164.39288610  .00003922  00000+0  27998-3 0  9998","line2":"2 42829  97.4267 322.1953 0018783 106.2193 254.1103 15.04934868486132","category":"Other"},{"name":"JILIN-1 05","line1":"1 43023U 17074B   26164.59836056  .00008666  00000+0  26731-3 0  9999","line2":"2 43023  97.4865 270.7038 0004084 229.1321 130.9568 15.33824095473451","category":"Other"},{"name":"CORVUS BC1","line1":"1 42847U 17042Y   26164.40335986  .00003899  00000+0  26789-3 0  9999","line2":"2 42847  97.4084 326.7121 0013172 100.7740 259.4971 15.06441369486525","category":"Other"},{"name":"CORVUS BC2","line1":"1 42846U 17042X   26164.40831955  .00003675  00000+0  25381-3 0  9994","line2":"2 42846  97.4051 325.9054 0014186 122.2810 237.9794 15.06270804486491","category":"Other"}]}