OBJECT_NAME,OBJECT_ID,EPOCH,MEAN_MOTION,ECCENTRICITY,INCLINATION,RA_OF_ASC_NODE,ARG_OF_PERICENTER,MEAN_ANOMALY,EPHEMERIS_TYPE,CLASSIFICATION_TYPE,NORAD_CAT_ID,ELEMENT_SET_NO,REV_AT_EPOCH,BSTAR,MEAN_MOTION_DOT,MEAN_MOTION_DDOT
JILIN-1 03,2017-002B,2026-06-13T14:03:04.220064,15.41495266,.00063415,97.1941,171.7207,165.3438,194.7995,0,U,41914,999,52130,.31225653E-3,.1302E-3,0
CARTOSAT-2D,2017-008A,2026-06-13T14:26:41.980992,15.19309573,.00036173,97.4117,223.9745,244.4128,115.6733,0,U,41948,999,51703,.20197853E-3,.4197E-4,0
CARTOSAT-2E,2017-036C,2026-06-13T14:52:14.083680,15.19231682,.0002826,97.4286,224.4806,338.5785,21.5331,0,U,42767,999,49760,.23769544E-3,.494E-4,0
IRIDIUM 113,2017-039A,2026-06-13T11:20:55.220640,14.34217696,.00022903,86.3966,323.7317,89.1785,270.9673,0,U,42803,999,47065,.2836624E-5,.28E-6,0
NORSAT 2,2017-042D,2026-06-13T09:52:28.047936,15.21860488,.00107223,97.4029,337.9125,69.1336,291.1048,0,U,42828,999,48716,.4508326E-3,.10203E-3,0
TECHNOSAT,2017-042E,2026-06-13T09:25:45.359040,15.04934868,.00187837,97.4267,322.1953,106.2193,254.1103,0,U,42829,999,48613,.27997945E-3,.3922E-4,0
WNISAT 1R,2017-042L,2026-06-13T11:51:09.671616,15.01748498,.00107044,97.4828,320.7482,159.5092,200.6564,0,U,42835,999,48595,.18876857E-3,.2402E-4,0
LEMUR-2-FURIAUS,2017-042R,2026-06-13T11:37:07.599936,15.30139214,.00083633,97.3762,343.0905,80.4299,279.7886,0,U,42840,999,48764,.57430534E-3,.16709E-3,0
CORVUS BC2,2017-042X,2026-06-13T09:47:58.809120,15.06270804,.00141866,97.4051,325.9054,122.2810,237.9794,0,U,42846,999,48649,.25381228E-3,.3675E-4,0
CORVUS BC1,2017-042Y,2026-06-13T09:40:50.291904,15.06441369,.00131723,97.4084,326.7121,100.7740,259.4971,0,U,42847,999,48652,.26789323E-3,.3899E-4,0
MOHAMMED VI-A,2017-070A,2026-06-13T14:53:35.058624,14.77065140,.00014204,97.9562,237.0008,71.2935,288.8429,0,U,43005,999,46345,.11533768E-3,.763E-5,0
FENGYUN 3D,2017-072A,2026-06-13T14:58:00.760224,14.19739058,.00025974,99.0118,138.9810,67.2131,292.9318,0,U,43010,999,44448,.11855039E-3,.205E-5,0
NOAA 20 (JPSS-1),2017-073A,2026-06-13T14:49:54.099264,14.19511095,.00002953,98.7773,104.1123,68.3291,291.7916,0,U,43013,999,44396,.32860575E-4,.25E-6,0
MAKERSAT 0,2017-073D,2026-06-13T15:40:16.610592,15.31989436,.0105291,97.4638,47.1449,285.8058,73.1594,0,U,43016,999,46592,.51522909E-3,.18894E-3,0
RADFXSAT (FOX-1B),2017-073E,2026-06-13T13:40:34.716000,15.12665401,.01501403,97.4712,31.8592,341.8088,17.7804,0,U,43017,999,46484,.40225943E-3,.9212E-4,0
JILIN-1 04,2017-074A,2026-06-13T13:59:23.397216,15.42359452,.00038379,97.4858,274.0992,190.5920,169.5247,0,U,43022,999,47371,.32927307E-3,.14127E-3,0
JILIN-1 05,2017-074B,2026-06-13T14:21:38.352384,15.33824095,.00040849,97.4865,270.7038,229.1321,130.9568,0,U,43023,999,47345,.26731473E-3,.8666E-4,0
JILIN-1 06,2017-074C,2026-06-13T13:40:07.367808,15.33655690,.0005448,97.4791,267.6888,246.2425,113.8247,0,U,43024,999,47328,.18905759E-3,.6072E-4,0
IRIDIUM 116,2017-083C,2026-06-13T12:24:51.125760,14.34217953,.00019187,86.3960,323.5360,96.9907,263.1507,0,U,43072,999,44364,.15896151E-4,.64E-6,0
IRIDIUM 130,2017-083D,2026-06-13T11:39:11.127744,14.34217084,.00018217,86.3966,323.8243,90.0985,270.0420,0,U,43073,999,44358,-.25385649E-4,-.51E-6,0
LKW-2,2017-084A,2026-06-13T14:51:56.828736,15.26300319,.00006061,97.1196,204.5818,182.1744,177.9493,0,U,43080,999,47114,.35526542E-3,.9152E-4,0
LKW-3,2018-006A,2026-06-13T14:23:03.670656,15.35183754,.00023377,97.6597,325.0340,340.5445,19.5708,0,U,43146,999,46816,.33855824E-3,.11483E-3,0
